TIGRISAT                
1 40043U 14033AK  26073.37485532  .00002618  00000+0  30837-3 0  9997
2 40043  97.7678 225.6557 0050048  27.1926 333.1894 14.84754454631550
AEROCUBE 6A             
1 40045U 14033AM  26073.40955516  .00008341  00000+0  72036-3 0  9993
2 40045  97.7133 241.4874 0038275 334.4381  25.4947 14.96920691632432
AEROCUBE 6B             
1 40046U 14033AN  26073.43511842  .00007250  00000+0  60519-3 0  9998
2 40046  97.7113 241.1162 0037495 325.5923  34.2872 14.98308188632566
CANX-4                  
1 40055U 14034C   26073.57526933  .00001315  00000+0  17670-3 0  9997
2 40055  98.3269 305.3505 0012020 320.0852  39.9474 14.81075934630523
CANX-5                  
1 40056U 14034D   26073.57478719  .00001326  00000+0  17810-3 0  9994
2 40056  98.3273 305.3877 0012022 320.3246  39.7085 14.81092700621338
UKUBE-1                 
1 40074U 14037F   26073.51504617  .00014449  00000+0  84680-3 0  9997
2 40074  98.4236  66.9687 0003219 103.9825 256.1761 15.11913095634246
BRITE-PL2 (HEWELIUSZ)   
1 40119U 14049B   26073.29381576  .00002373  00000+0  22652-3 0  9996
2 40119  97.8979 184.6506 0015133  67.0924 293.1891 14.94207926627278
AEROCUBE 5C             
1 40965U 15058B   26073.60871869  .00004488  00000+0  40056-3 0  9997
2 40965  64.7676 196.6899 0130397 100.5403 261.0430 14.90902954351554
AEROCUBE 7              
1 40966U 15058C   26073.60086664  .00005874  00000+0  47774-3 0  9993
2 40966  64.7629 180.9025 0120311  99.5241 261.9494 14.94956464351819
FOX-1A (AO-85)          
1 40967U 15058D   26073.62501573  .00004594  00000+0  41680-3 0  9995
2 40967  64.7751 212.7187 0128748  93.9412 267.6429 14.90401583 99474
SINOD-D 1               
1 40968U 15058E   26073.58968366  .00006353  00000+0  51713-3 0  9991
2 40968  64.7755 194.9696 0117120  91.1460 270.3075 14.95115804102511
SNAP-3 ALICE            
1 40970U 15058G   26073.36817989  .00082342  00000+0  17179-2 0  9993
2 40970  64.7554  67.5491 0036919  66.8641 293.6380 15.44336068102176
LMRST-SAT               
1 40971U 15058H   26073.55666050  .00004557  00000+0  41547-3 0  9995
2 40971  64.7755 209.0932 0130822  95.9406 265.6633 14.90033569 99459
SNAP-3 EDDIE            
1 40972U 15058J   26073.29711050  .00085562  00000+0  17194-2 0  9993
2 40972  64.7478  59.1514 0038017  72.1061 288.4218 15.45366878104293
PROPCUBE 3              
1 40973U 15058K   26073.61999598  .00005346  00000+0  44932-3 0  9998
2 40973  64.7692 187.8414 0123277  97.6234 263.8901 14.93581790100675
BISONSAT                
1 40974U 15058L   26073.51338708  .00014999  00000+0  77210-3 0  9997
2 40974  64.7600 119.2214 0078708  88.5525 272.4613 15.13918283101279
