[{"OBJECT_NAME":"TIGRISAT","OBJECT_ID":"2014-033AK","EPOCH":"2026-03-14T08:59:47.499648","MEAN_MOTION":14.84754454,"ECCENTRICITY":0.00500485,"INCLINATION":97.7678,"RA_OF_ASC_NODE":225.6557,"ARG_OF_PERICENTER":27.1926,"MEAN_ANOMALY":333.1894,"EPHEMERIS_TYPE":0,"CLASSIFICATION_TYPE":"U","NORAD_CAT_ID":40043,"ELEMENT_SET_NO":999,"REV_AT_EPOCH":63155,"BSTAR":0.00030836764,"MEAN_MOTION_DOT":2.618e-5,"MEAN_MOTION_DDOT":0},{"OBJECT_NAME":"AEROCUBE 6A","OBJECT_ID":"2014-033AM","EPOCH":"2026-03-14T09:49:45.565824","MEAN_MOTION":14.96920691,"ECCENTRICITY":0.00382751,"INCLINATION":97.7133,"RA_OF_ASC_NODE":241.4874,"ARG_OF_PERICENTER":334.4381,"MEAN_ANOMALY":25.4947,"EPHEMERIS_TYPE":0,"CLASSIFICATION_TYPE":"U","NORAD_CAT_ID":40045,"ELEMENT_SET_NO":999,"REV_AT_EPOCH":63243,"BSTAR":0.0007203644,"MEAN_MOTION_DOT":8.341e-5,"MEAN_MOTION_DDOT":0},{"OBJECT_NAME":"AEROCUBE 6B","OBJECT_ID":"2014-033AN","EPOCH":"2026-03-14T10:26:34.231488","MEAN_MOTION":14.98308188,"ECCENTRICITY":0.0037495,"INCLINATION":97.7113,"RA_OF_ASC_NODE":241.1162,"ARG_OF_PERICENTER":325.5923,"MEAN_ANOMALY":34.2872,"EPHEMERIS_TYPE":0,"CLASSIFICATION_TYPE":"U","NORAD_CAT_ID":40046,"ELEMENT_SET_NO":999,"REV_AT_EPOCH":63256,"BSTAR":0.00060518682,"MEAN_MOTION_DOT":7.25e-5,"MEAN_MOTION_DDOT":0},{"OBJECT_NAME":"CANX-4","OBJECT_ID":"2014-034C","EPOCH":"2026-03-14T13:48:23.270112","MEAN_MOTION":14.81075934,"ECCENTRICITY":0.00120205,"INCLINATION":98.3269,"RA_OF_ASC_NODE":305.3505,"ARG_OF_PERICENTER":320.0852,"MEAN_ANOMALY":39.9474,"EPHEMERIS_TYPE":0,"CLASSIFICATION_TYPE":"U","NORAD_CAT_ID":40055,"ELEMENT_SET_NO":999,"REV_AT_EPOCH":63052,"BSTAR":0.000176702,"MEAN_MOTION_DOT":1.315e-5,"MEAN_MOTION_DDOT":0},{"OBJECT_NAME":"CANX-5","OBJECT_ID":"2014-034D","EPOCH":"2026-03-14T13:47:41.613216","MEAN_MOTION":14.810927,"ECCENTRICITY":0.00120223,"INCLINATION":98.3273,"RA_OF_ASC_NODE":305.3877,"ARG_OF_PERICENTER":320.3246,"MEAN_ANOMALY":39.7085,"EPHEMERIS_TYPE":0,"CLASSIFICATION_TYPE":"U","NORAD_CAT_ID":40056,"ELEMENT_SET_NO":999,"REV_AT_EPOCH":62133,"BSTAR":0.00017809947,"MEAN_MOTION_DOT":1.326e-5,"MEAN_MOTION_DDOT":0},{"OBJECT_NAME":"UKUBE-1","OBJECT_ID":"2014-037F","EPOCH":"2026-03-14T12:21:39.989088","MEAN_MOTION":15.11913095,"ECCENTRICITY":0.00032193,"INCLINATION":98.4236,"RA_OF_ASC_NODE":66.9687,"ARG_OF_PERICENTER":103.9825,"MEAN_ANOMALY":256.1761,"EPHEMERIS_TYPE":0,"CLASSIFICATION_TYPE":"U","NORAD_CAT_ID":40074,"ELEMENT_SET_NO":999,"REV_AT_EPOCH":63424,"BSTAR":0.00084680108,"MEAN_MOTION_DOT":0.00014449,"MEAN_MOTION_DDOT":0},{"OBJECT_NAME":"BRITE-PL2 (HEWELIUSZ)","OBJECT_ID":"2014-049B","EPOCH":"2026-03-14T07:03:05.681664","MEAN_MOTION":14.94207926,"ECCENTRICITY":0.00151334,"INCLINATION":97.8979,"RA_OF_ASC_NODE":184.6506,"ARG_OF_PERICENTER":67.0924,"MEAN_ANOMALY":293.1891,"EPHEMERIS_TYPE":0,"CLASSIFICATION_TYPE":"U","NORAD_CAT_ID":40119,"ELEMENT_SET_NO":999,"REV_AT_EPOCH":62727,"BSTAR":0.00022652251,"MEAN_MOTION_DOT":2.373e-5,"MEAN_MOTION_DDOT":0},{"OBJECT_NAME":"AEROCUBE 5C","OBJECT_ID":"2015-058B","EPOCH":"2026-03-14T14:36:33.294816","MEAN_MOTION":14.90902954,"ECCENTRICITY":0.01303977,"INCLINATION":64.7676,"RA_OF_ASC_NODE":196.6899,"ARG_OF_PERICENTER":100.5403,"MEAN_ANOMALY":261.043,"EPHEMERIS_TYPE":0,"CLASSIFICATION_TYPE":"U","NORAD_CAT_ID":40965,"ELEMENT_SET_NO":999,"REV_AT_EPOCH":35155,"BSTAR":0.00040056097,"MEAN_MOTION_DOT":4.488e-5,"MEAN_MOTION_DDOT":0},{"OBJECT_NAME":"AEROCUBE 7","OBJECT_ID":"2015-058C","EPOCH":"2026-03-14T14:25:14.877696","MEAN_MOTION":14.94956464,"ECCENTRICITY":0.01203112,"INCLINATION":64.7629,"RA_OF_ASC_NODE":180.9025,"ARG_OF_PERICENTER":99.5241,"MEAN_ANOMALY":261.9494,"EPHEMERIS_TYPE":0,"CLASSIFICATION_TYPE":"U","NORAD_CAT_ID":40966,"ELEMENT_SET_NO":999,"REV_AT_EPOCH":35181,"BSTAR":0.00047773583,"MEAN_MOTION_DOT":5.874e-5,"MEAN_MOTION_DDOT":0},{"OBJECT_NAME":"FOX-1A (AO-85)","OBJECT_ID":"2015-058D","EPOCH":"2026-03-14T15:00:01.359072","MEAN_MOTION":14.90401583,"ECCENTRICITY":0.01287486,"INCLINATION":64.7751,"RA_OF_ASC_NODE":212.7187,"ARG_OF_PERICENTER":93.9412,"MEAN_ANOMALY":267.6429,"EPHEMERIS_TYPE":0,"CLASSIFICATION_TYPE":"U","NORAD_CAT_ID":40967,"ELEMENT_SET_NO":999,"REV_AT_EPOCH":9947,"BSTAR":0.00041680019,"MEAN_MOTION_DOT":4.594e-5,"MEAN_MOTION_DDOT":0},{"OBJECT_NAME":"SINOD-D 1","OBJECT_ID":"2015-058E","EPOCH":"2026-03-14T14:09:08.668224","MEAN_MOTION":14.95115804,"ECCENTRICITY":0.01171206,"INCLINATION":64.7755,"RA_OF_ASC_NODE":194.9696,"ARG_OF_PERICENTER":91.146,"MEAN_ANOMALY":270.3075,"EPHEMERIS_TYPE":0,"CLASSIFICATION_TYPE":"U","NORAD_CAT_ID":40968,"ELEMENT_SET_NO":999,"REV_AT_EPOCH":10251,"BSTAR":0.00051712949,"MEAN_MOTION_DOT":6.353e-5,"MEAN_MOTION_DDOT":0},{"OBJECT_NAME":"SNAP-3 ALICE","OBJECT_ID":"2015-058G","EPOCH":"2026-03-14T08:50:10.742496","MEAN_MOTION":15.44336068,"ECCENTRICITY":0.00369197,"INCLINATION":64.7554,"RA_OF_ASC_NODE":67.5491,"ARG_OF_PERICENTER":66.8641,"MEAN_ANOMALY":293.638,"EPHEMERIS_TYPE":0,"CLASSIFICATION_TYPE":"U","NORAD_CAT_ID":40970,"ELEMENT_SET_NO":999,"REV_AT_EPOCH":10217,"BSTAR":0.0017178511,"MEAN_MOTION_DOT":0.00082342,"MEAN_MOTION_DDOT":0},{"OBJECT_NAME":"LMRST-SAT","OBJECT_ID":"2015-058H","EPOCH":"2026-03-14T13:21:35.467200","MEAN_MOTION":14.90033569,"ECCENTRICITY":0.01308225,"INCLINATION":64.7755,"RA_OF_ASC_NODE":209.0932,"ARG_OF_PERICENTER":95.9406,"MEAN_ANOMALY":265.6633,"EPHEMERIS_TYPE":0,"CLASSIFICATION_TYPE":"U","NORAD_CAT_ID":40971,"ELEMENT_SET_NO":999,"REV_AT_EPOCH":9945,"BSTAR":0.00041547406,"MEAN_MOTION_DOT":4.557e-5,"MEAN_MOTION_DDOT":0},{"OBJECT_NAME":"SNAP-3 EDDIE","OBJECT_ID":"2015-058J","EPOCH":"2026-03-14T07:07:50.347200","MEAN_MOTION":15.45366878,"ECCENTRICITY":0.00380175,"INCLINATION":64.7478,"RA_OF_ASC_NODE":59.1514,"ARG_OF_PERICENTER":72.1061,"MEAN_ANOMALY":288.4218,"EPHEMERIS_TYPE":0,"CLASSIFICATION_TYPE":"U","NORAD_CAT_ID":40972,"ELEMENT_SET_NO":999,"REV_AT_EPOCH":10429,"BSTAR":0.0017193651,"MEAN_MOTION_DOT":0.00085562,"MEAN_MOTION_DDOT":0},{"OBJECT_NAME":"PROPCUBE 3","OBJECT_ID":"2015-058K","EPOCH":"2026-03-14T14:52:47.652672","MEAN_MOTION":14.9358179,"ECCENTRICITY":0.01232779,"INCLINATION":64.7692,"RA_OF_ASC_NODE":187.8414,"ARG_OF_PERICENTER":97.6234,"MEAN_ANOMALY":263.8901,"EPHEMERIS_TYPE":0,"CLASSIFICATION_TYPE":"U","NORAD_CAT_ID":40973,"ELEMENT_SET_NO":999,"REV_AT_EPOCH":10067,"BSTAR":0.00044931642,"MEAN_MOTION_DOT":5.346e-5,"MEAN_MOTION_DDOT":0},{"OBJECT_NAME":"BISONSAT","OBJECT_ID":"2015-058L","EPOCH":"2026-03-14T12:19:16.643712","MEAN_MOTION":15.13918283,"ECCENTRICITY":0.00787086,"INCLINATION":64.76,"RA_OF_ASC_NODE":119.2214,"ARG_OF_PERICENTER":88.5525,"MEAN_ANOMALY":272.4613,"EPHEMERIS_TYPE":0,"CLASSIFICATION_TYPE":"U","NORAD_CAT_ID":40974,"ELEMENT_SET_NO":999,"REV_AT_EPOCH":10127,"BSTAR":0.00077209964,"MEAN_MOTION_DOT":0.00014999,"MEAN_MOTION_DDOT":0}]
